[{"OBJECT_NAME":"STARLINK-5467","OBJECT_ID":"2023-021AJ","EPOCH":"2026-03-09T15:44:49.737408","MEAN_MOTION":14.98299745,"ECCENTRICITY":0.00034055,"INCLINATION":70.0014,"RA_OF_ASC_NODE":164.3842,"ARG_OF_PERICENTER":269.2197,"MEAN_ANOMALY":90.8572,"EPHEMERIS_TYPE":0,"CLASSIFICATION_TYPE":"U","NORAD_CAT_ID":55660,"ELEMENT_SET_NO":999,"REV_AT_EPOCH":16928,"BSTAR":0.00024740261,"MEAN_MOTION_DOT":2.858e-5,"MEAN_MOTION_DDOT":0},{"OBJECT_NAME":"SOAP","OBJECT_ID":"2025-052BF","EPOCH":"2026-03-10T00:02:28.605408","MEAN_MOTION":14.96239557,"ECCENTRICITY":0.00016838,"INCLINATION":97.698,"RA_OF_ASC_NODE":323.0105,"ARG_OF_PERICENTER":5.2797,"MEAN_ANOMALY":354.8442,"EPHEMERIS_TYPE":0,"CLASSIFICATION_TYPE":"U","NORAD_CAT_ID":63263,"ELEMENT_SET_NO":999,"REV_AT_EPOCH":5385,"BSTAR":0.00031886977,"MEAN_MOTION_DOT":3.541e-5,"MEAN_MOTION_DDOT":0}]
